[{"OBJECT_NAME":"KUIPER-00210","OBJECT_ID":"2025-301P","EPOCH":"2026-03-14T22:00:01.999584","MEAN_MOTION":14.79979312,"ECCENTRICITY":0.00011488,"INCLINATION":51.8993,"RA_OF_ASC_NODE":49.9882,"ARG_OF_PERICENTER":116.743,"MEAN_ANOMALY":235.3255,"EPHEMERIS_TYPE":0,"CLASSIFICATION_TYPE":"U","NORAD_CAT_ID":67146,"ELEMENT_SET_NO":999,"REV_AT_EPOCH":519,"BSTAR":0.0034484344,"MEAN_MOTION_DOT":0.00026199,"MEAN_MOTION_DDOT":0},{"OBJECT_NAME":"KUIPER-00221","OBJECT_ID":"2025-301Q","EPOCH":"2026-03-14T22:39:13.831776","MEAN_MOTION":14.79914662,"ECCENTRICITY":9.836e-5,"INCLINATION":51.9019,"RA_OF_ASC_NODE":57.3728,"ARG_OF_PERICENTER":84.5401,"MEAN_ANOMALY":275.5673,"EPHEMERIS_TYPE":0,"CLASSIFICATION_TYPE":"U","NORAD_CAT_ID":67147,"ELEMENT_SET_NO":999,"REV_AT_EPOCH":1430,"BSTAR":0.00063826563,"MEAN_MOTION_DOT":4.646e-5,"MEAN_MOTION_DDOT":0},{"OBJECT_NAME":"KUIPER-00232","OBJECT_ID":"2025-301R","EPOCH":"2026-03-14T22:00:01.999584","MEAN_MOTION":15.02861906,"ECCENTRICITY":0.00033517,"INCLINATION":51.89,"RA_OF_ASC_NODE":42.5457,"ARG_OF_PERICENTER":161.0801,"MEAN_ANOMALY":193.9583,"EPHEMERIS_TYPE":0,"CLASSIFICATION_TYPE":"U","NORAD_CAT_ID":67148,"ELEMENT_SET_NO":999,"REV_AT_EPOCH":570,"BSTAR":-0.15034784,"MEAN_MOTION_DOT":-0.01848466,"MEAN_MOTION_DDOT":0},{"OBJECT_NAME":"KUIPER-00241","OBJECT_ID":"2025-301S","EPOCH":"2026-03-14T22:46:54.010272","MEAN_MOTION":14.79937091,"ECCENTRICITY":8.957e-5,"INCLINATION":51.903,"RA_OF_ASC_NODE":52.3547,"ARG_OF_PERICENTER":94.9235,"MEAN_ANOMALY":265.1829,"EPHEMERIS_TYPE":0,"CLASSIFICATION_TYPE":"U","NORAD_CAT_ID":67149,"ELEMENT_SET_NO":999,"REV_AT_EPOCH":1470,"BSTAR":9.4176092e-5,"MEAN_MOTION_DOT":4.97e-6,"MEAN_MOTION_DDOT":0},{"OBJECT_NAME":"KUIPER-00245","OBJECT_ID":"2025-301T","EPOCH":"2026-03-14T06:22:50.786112","MEAN_MOTION":14.79978861,"ECCENTRICITY":6.032e-5,"INCLINATION":51.9032,"RA_OF_ASC_NODE":62.8923,"ARG_OF_PERICENTER":71.8601,"MEAN_ANOMALY":288.2427,"EPHEMERIS_TYPE":0,"CLASSIFICATION_TYPE":"U","NORAD_CAT_ID":67150,"ELEMENT_SET_NO":999,"REV_AT_EPOCH":1416,"BSTAR":0.00058837265,"MEAN_MOTION_DOT":4.272e-5,"MEAN_MOTION_DDOT":0},{"OBJECT_NAME":"KUIPER-00246","OBJECT_ID":"2025-301U","EPOCH":"2026-03-14T22:00:01.999584","MEAN_MOTION":14.84630065,"ECCENTRICITY":0.00047349,"INCLINATION":51.9005,"RA_OF_ASC_NODE":44.7914,"ARG_OF_PERICENTER":94.9112,"MEAN_ANOMALY":332.3608,"EPHEMERIS_TYPE":0,"CLASSIFICATION_TYPE":"U","NORAD_CAT_ID":67151,"ELEMENT_SET_NO":999,"REV_AT_EPOCH":422,"BSTAR":0.0011976196,"MEAN_MOTION_DOT":0.00010007,"MEAN_MOTION_DDOT":0},{"OBJECT_NAME":"KUIPER-00247","OBJECT_ID":"2025-301V","EPOCH":"2026-03-14T21:01:48.248832","MEAN_MOTION":15.36526745,"ECCENTRICITY":0.00151327,"INCLINATION":51.8632,"RA_OF_ASC_NODE":40.9035,"ARG_OF_PERICENTER":96.5354,"MEAN_ANOMALY":263.7356,"EPHEMERIS_TYPE":0,"CLASSIFICATION_TYPE":"U","NORAD_CAT_ID":67152,"ELEMENT_SET_NO":999,"REV_AT_EPOCH":1452,"BSTAR":-0.0014347033,"MEAN_MOTION_DOT":-0.0005219,"MEAN_MOTION_DDOT":0},{"OBJECT_NAME":"KUIPER-00248","OBJECT_ID":"2025-301W","EPOCH":"2026-03-14T04:33:31.759488","MEAN_MOTION":15.37636139,"ECCENTRICITY":0.00107916,"INCLINATION":51.8673,"RA_OF_ASC_NODE":43.8521,"ARG_OF_PERICENTER":61.9545,"MEAN_ANOMALY":298.2532,"EPHEMERIS_TYPE":0,"CLASSIFICATION_TYPE":"U","NORAD_CAT_ID":67153,"ELEMENT_SET_NO":999,"REV_AT_EPOCH":1459,"BSTAR":0.0011702396,"MEAN_MOTION_DOT":0.00043851,"MEAN_MOTION_DDOT":0},{"OBJECT_NAME":"KUIPER-00249","OBJECT_ID":"2025-301X","EPOCH":"2026-03-14T22:31:37.898976","MEAN_MOTION":15.38364478,"ECCENTRICITY":0.00105515,"INCLINATION":51.865,"RA_OF_ASC_NODE":39.858,"ARG_OF_PERICENTER":65.4443,"MEAN_ANOMALY":294.7643,"EPHEMERIS_TYPE":0,"CLASSIFICATION_TYPE":"U","NORAD_CAT_ID":67154,"ELEMENT_SET_NO":999,"REV_AT_EPOCH":1454,"BSTAR":0.0010574031,"MEAN_MOTION_DOT":0.0004052,"MEAN_MOTION_DDOT":0},{"OBJECT_NAME":"KUIPER-00250","OBJECT_ID":"2025-301Y","EPOCH":"2026-03-14T22:00:01.999584","MEAN_MOTION":14.81507931,"ECCENTRICITY":0.00016014,"INCLINATION":51.9001,"RA_OF_ASC_NODE":46.8041,"ARG_OF_PERICENTER":128.615,"MEAN_ANOMALY":23.7371,"EPHEMERIS_TYPE":0,"CLASSIFICATION_TYPE":"U","NORAD_CAT_ID":67155,"ELEMENT_SET_NO":999,"REV_AT_EPOCH":576,"BSTAR":4.6434435e-5,"MEAN_MOTION_DOT":1.43e-6,"MEAN_MOTION_DDOT":0},{"OBJECT_NAME":"KUIPER-00251","OBJECT_ID":"2025-301Z","EPOCH":"2026-03-14T22:00:01.999584","MEAN_MOTION":15.31740651,"ECCENTRICITY":0.0011675,"INCLINATION":51.8702,"RA_OF_ASC_NODE":40.2762,"ARG_OF_PERICENTER":68.5649,"MEAN_ANOMALY":9.0583,"EPHEMERIS_TYPE":0,"CLASSIFICATION_TYPE":"U","NORAD_CAT_ID":67156,"ELEMENT_SET_NO":999,"REV_AT_EPOCH":185,"BSTAR":0.0014272714,"MEAN_MOTION_DOT":0.00044368,"MEAN_MOTION_DDOT":0},{"OBJECT_NAME":"KUIPER-00252","OBJECT_ID":"2025-301AA","EPOCH":"2026-03-14T22:00:01.999584","MEAN_MOTION":15.2716177,"ECCENTRICITY":0.00097705,"INCLINATION":51.8706,"RA_OF_ASC_NODE":40.7358,"ARG_OF_PERICENTER":82.5155,"MEAN_ANOMALY":147.3223,"EPHEMERIS_TYPE":0,"CLASSIFICATION_TYPE":"U","NORAD_CAT_ID":67157,"ELEMENT_SET_NO":999,"REV_AT_EPOCH":588,"BSTAR":-0.040293756,"MEAN_MOTION_DOT":-0.01005137,"MEAN_MOTION_DDOT":0},{"OBJECT_NAME":"KUIPER-00261","OBJECT_ID":"2025-301AB","EPOCH":"2026-03-14T22:00:01.999584","MEAN_MOTION":14.80593712,"ECCENTRICITY":4.934e-5,"INCLINATION":51.9019,"RA_OF_ASC_NODE":47.1078,"ARG_OF_PERICENTER":16.8595,"MEAN_ANOMALY":177.9817,"EPHEMERIS_TYPE":0,"CLASSIFICATION_TYPE":"U","NORAD_CAT_ID":67158,"ELEMENT_SET_NO":999,"REV_AT_EPOCH":573,"BSTAR":-0.00041426766,"MEAN_MOTION_DOT":-3.429e-5,"MEAN_MOTION_DDOT":0},{"OBJECT_NAME":"KUIPER-00265","OBJECT_ID":"2025-301AC","EPOCH":"2026-03-14T22:31:24.152736","MEAN_MOTION":14.79919803,"ECCENTRICITY":0.00010569,"INCLINATION":51.9026,"RA_OF_ASC_NODE":62.4028,"ARG_OF_PERICENTER":59.6446,"MEAN_ANOMALY":300.4621,"EPHEMERIS_TYPE":0,"CLASSIFICATION_TYPE":"U","NORAD_CAT_ID":67159,"ELEMENT_SET_NO":999,"REV_AT_EPOCH":1426,"BSTAR":6.7160845e-5,"MEAN_MOTION_DOT":2.91e-6,"MEAN_MOTION_DDOT":0},{"OBJECT_NAME":"KUIPER-00159","OBJECT_ID":"2026-030A","EPOCH":"2026-03-14T16:58:41.377440","MEAN_MOTION":15.36031476,"ECCENTRICITY":0.00054752,"INCLINATION":51.8843,"RA_OF_ASC_NODE":194.965,"ARG_OF_PERICENTER":55.5013,"MEAN_ANOMALY":304.6489,"EPHEMERIS_TYPE":0,"CLASSIFICATION_TYPE":"U","NORAD_CAT_ID":67764,"ELEMENT_SET_NO":999,"REV_AT_EPOCH":586,"BSTAR":0.0013077778,"MEAN_MOTION_DOT":0.00046515,"MEAN_MOTION_DDOT":0},{"OBJECT_NAME":"KUIPER-00160","OBJECT_ID":"2026-030B","EPOCH":"2026-03-14T17:01:56.389152","MEAN_MOTION":15.35856017,"ECCENTRICITY":0.0005429,"INCLINATION":51.8814,"RA_OF_ASC_NODE":194.9672,"ARG_OF_PERICENTER":67.8682,"MEAN_ANOMALY":292.288,"EPHEMERIS_TYPE":0,"CLASSIFICATION_TYPE":"U","NORAD_CAT_ID":67765,"ELEMENT_SET_NO":999,"REV_AT_EPOCH":586,"BSTAR":0.0010408013,"MEAN_MOTION_DOT":0.00036683,"MEAN_MOTION_DDOT":0},{"OBJECT_NAME":"KUIPER-00177","OBJECT_ID":"2026-030C","EPOCH":"2026-03-14T22:00:01.999584","MEAN_MOTION":15.26836604,"ECCENTRICITY":0.00022694,"INCLINATION":51.8844,"RA_OF_ASC_NODE":193.9595,"ARG_OF_PERICENTER":24.5176,"MEAN_ANOMALY":28.8421,"EPHEMERIS_TYPE":0,"CLASSIFICATION_TYPE":"U","NORAD_CAT_ID":67766,"ELEMENT_SET_NO":999,"REV_AT_EPOCH":579,"BSTAR":-0.02862279,"MEAN_MOTION_DOT":-0.00714865,"MEAN_MOTION_DDOT":0}]
