KUIPER-00210            
1 67146U 25301P   26073.91668981  .00026199  00000+0  34484-2 0  9992
2 67146  51.8993  49.9882 0001148 116.7430 235.3255 14.79979312  5199
KUIPER-00221            
1 67147U 25301Q   26073.94391009  .00004646  00000+0  63827-3 0  9997
2 67147  51.9019  57.3728 0000983  84.5401 275.5673 14.79914662 14308
KUIPER-00232            
1 67148U 25301R   26073.91668981 -.01848466  00000+0 -15035+0 0  9994
2 67148  51.8900  42.5457 0003351 161.0801 193.9583 15.02861906  5705
KUIPER-00241            
1 67149U 25301S   26073.94923623  .00000497  00000+0  94176-4 0  9994
2 67149  51.9030  52.3547 0000895  94.9235 265.1829 14.79937091 14702
KUIPER-00245            
1 67150U 25301T   26073.26586558  .00004272  00000+0  58837-3 0  9991
2 67150  51.9032  62.8923 0000603  71.8601 288.2427 14.79978861 14168
KUIPER-00246            
1 67151U 25301U   26073.91668981  .00010007  00000+0  11976-2 0  9990
2 67151  51.9005  44.7914 0004734  94.9112 332.3608 14.84630065  4225
KUIPER-00247            
1 67152U 25301V   26073.87625288 -.00052190  00000+0 -14347-2 0  9995
2 67152  51.8632  40.9035 0015132  96.5354 263.7356 15.36526745 14521
KUIPER-00248            
1 67153U 25301W   26073.18995092  .00043851  00000+0  11702-2 0  9997
2 67153  51.8673  43.8521 0010791  61.9545 298.2532 15.37636139 14599
KUIPER-00249            
1 67154U 25301X   26073.93863309  .00040520  00000+0  10574-2 0  9992
2 67154  51.8650  39.8580 0010551  65.4443 294.7643 15.38364478 14549
KUIPER-00250            
1 67155U 25301Y   26073.91668981  .00000143  00000+0  46434-4 0  9993
2 67155  51.9001  46.8041 0001601 128.6150  23.7371 14.81507931  5766
KUIPER-00251            
1 67156U 25301Z   26073.91668981  .00044368  00000+0  14273-2 0  9995
2 67156  51.8702  40.2762 0011675  68.5649   9.0583 15.31740651  1851
KUIPER-00252            
1 67157U 25301AA  26073.91668981 -.01005137  00000+0 -40294-1 0  9991
2 67157  51.8706  40.7358 0009770  82.5155 147.3223 15.27161770  5881
KUIPER-00261            
1 67158U 25301AB  26073.91668981 -.00003429  00000+0 -41427-3 0  9994
2 67158  51.9019  47.1078 0000493  16.8595 177.9817 14.80593712  5736
KUIPER-00265            
1 67159U 25301AC  26073.93847399  .00000291  00000+0  67161-4 0  9995
2 67159  51.9026  62.4028 0001056  59.6446 300.4621 14.79919803 14261
KUIPER-00159            
1 67764U 26030A   26073.70742335  .00046515  00000+0  13078-2 0  9991
2 67764  51.8843 194.9650 0005475  55.5013 304.6489 15.36031476  5864
KUIPER-00160            
1 67765U 26030B   26073.70968043  .00036683  00000+0  10408-2 0  9997
2 67765  51.8814 194.9672 0005429  67.8682 292.2880 15.35856017  5866
KUIPER-00177            
1 67766U 26030C   26073.91668981 -.00714865  00000+0 -28623-1 0  9993
2 67766  51.8844 193.9595 0002269  24.5176  28.8421 15.26836604  5796
